{
    "links": {
        "self": "http://www.neowsapp.com/rest/v1/neo/3337711?api_key=iIulBulltgU6a56xZRHN4H3l9WmuAYTsLGpBGhQ2"
    },
    "id": "3337711",
    "neo_reference_id": "3337711",
    "name": "(2006 OB7)",
    "designation": "2006 OB7",
    "nasa_jpl_url": "http://ssd.jpl.nasa.gov/sbdb.cgi?sstr=3337711",
    "absolute_magnitude_h": 23.9,
    "estimated_diameter": {
        "kilometers": {
            "estimated_diameter_min": 0.04411182,
            "estimated_diameter_max": 0.0986370281
        },
        "meters": {
            "estimated_diameter_min": 44.1118199997,
            "estimated_diameter_max": 98.6370281305
        },
        "miles": {
            "estimated_diameter_min": 0.0274098057,
            "estimated_diameter_max": 0.0612901888
        },
        "feet": {
            "estimated_diameter_min": 144.7238235278,
            "estimated_diameter_max": 323.6123073718
        }
    },
    "is_potentially_hazardous_asteroid": false,
    "close_approach_data": [
        {
            "close_approach_date": "2003-06-18",
            "close_approach_date_full": "2003-Jun-18 09:28",
            "epoch_date_close_approach": 1055928480000,
            "relative_velocity": {
                "kilometers_per_second": "15.422986179",
                "kilometers_per_hour": "55522.7502445775",
                "miles_per_hour": "34499.6777839154"
            },
            "miss_distance": {
                "astronomical": "0.2735147734",
                "lunar": "106.3972468526",
                "kilometers": "40917227.514172658",
                "miles": "25424786.2143043604"
            },
            "orbiting_body": "Earth"
        },
        {
            "close_approach_date": "2006-07-25",
            "close_approach_date_full": "2006-Jul-25 14:48",
            "epoch_date_close_approach": 1153838880000,
            "relative_velocity": {
                "kilometers_per_second": "7.6688910871",
                "kilometers_per_hour": "27608.0079135802",
                "miles_per_hour": "17154.5424727465"
            },
            "miss_distance": {
                "astronomical": "0.0340810037",
                "lunar": "13.2575104393",
                "kilometers": "5098445.560982119",
                "miles": "3168027.1682224822"
            },
            "orbiting_body": "Earth"
        },
        {
            "close_approach_date": "2009-09-16",
            "close_approach_date_full": "2009-Sep-16 16:31",
            "epoch_date_close_approach": 1253118660000,
            "relative_velocity": {
                "kilometers_per_second": "14.6956931407",
                "kilometers_per_hour": "52904.4953065355",
                "miles_per_hour": "32872.7959864414"
            },
            "miss_distance": {
                "astronomical": "0.2800992831",
                "lunar": "108.9586211259",
                "kilometers": "41902256.140286997",
                "miles": "26036854.6205826786"
            },
            "orbiting_body": "Earth"
        }
    ],
    "orbital_data": {
        "orbit_id": "10",
        "orbit_determination_date": "2017-04-06 09:08:21",
        "first_observation_date": "2006-07-24",
        "last_observation_date": "2006-08-11",
        "data_arc_in_days": 18,
        "observations_used": 38,
        "orbit_uncertainty": "8",
        "minimum_orbit_intersection": ".0312718",
        "jupiter_tisserand_invariant": "3.557",
        "epoch_osculation": "2453947.5",
        "eccentricity": ".5104576673378456",
        "semi_major_axis": "2.107096605949648",
        "inclination": "6.591198140666583",
        "ascending_node_longitude": "289.95092318",
        "orbital_period": "1117.185005741381",
        "perihelion_distance": "1.031512987621099",
        "perihelion_argument": "22.5941354711251",
        "aphelion_distance": "3.182680224278197",
        "perihelion_time": "2453951.275938889464",
        "mean_anomaly": "358.7832471853621",
        "mean_motion": ".3222384816748399",
        "equinox": "J2000",
        "orbit_class": {
            "orbit_class_type": "AMO",
            "orbit_class_description": "Near-Earth asteroid orbits similar to that of 1221 Amor",
            "orbit_class_range": "1.017 AU < q (perihelion) < 1.3 AU"
        }
    },
    "is_sentry_object": false
}